TROOP-F2                
1 60557U 24149CT  26068.81453008  .00139132  00000+0  10931-2 0  9998
2 60557  97.3621 159.7382 0003464 230.7595 129.3361 15.71081872 87567
STARLINK-11225 [DTC]    
1 60912U 24154K   26068.42760487 -.00000969  00000+0 -31462-5 0  9990
2 60912  53.1592 132.5262 0000877  77.9573 282.1544 15.69711449 88465
