[{"OBJECT_NAME":"TROOP-F2","OBJECT_ID":"2024-149CT","EPOCH":"2026-03-09T19:32:55.399776","MEAN_MOTION":15.71081872,"ECCENTRICITY":0.00034643,"INCLINATION":97.3621,"RA_OF_ASC_NODE":159.7382,"ARG_OF_PERICENTER":230.7595,"MEAN_ANOMALY":129.3361,"EPHEMERIS_TYPE":0,"CLASSIFICATION_TYPE":"U","NORAD_CAT_ID":60557,"ELEMENT_SET_NO":999,"REV_AT_EPOCH":8756,"BSTAR":0.001093104,"MEAN_MOTION_DOT":0.00139132,"MEAN_MOTION_DDOT":0},{"OBJECT_NAME":"STARLINK-11225 [DTC]","OBJECT_ID":"2024-154K","EPOCH":"2026-03-09T10:15:45.060768","MEAN_MOTION":15.69711449,"ECCENTRICITY":8.774e-5,"INCLINATION":53.1592,"RA_OF_ASC_NODE":132.5262,"ARG_OF_PERICENTER":77.9573,"MEAN_ANOMALY":282.1544,"EPHEMERIS_TYPE":0,"CLASSIFICATION_TYPE":"U","NORAD_CAT_ID":60912,"ELEMENT_SET_NO":999,"REV_AT_EPOCH":8846,"BSTAR":-3.146199e-6,"MEAN_MOTION_DOT":-9.69e-6,"MEAN_MOTION_DDOT":0}]
